      2.10          N: GNSS NAV DATA                        RINEX VERSION / TYPE
fic2rin                                 02/23/2019 00:18:20 PGM / RUN BY / DATE
                                                            END OF HEADER
31 19  2 22 10  0  0.0 5.688751116395e-05-2.728484105319e-12 0.000000000000e+00
    2.400000000000e+01 4.671875000000e+01 4.986636284846e-09-2.145750507533e+00
    2.373009920120e-06 9.262064471841e-03 4.777684807777e-06 5.153560945511e+03
    4.680000000000e+05-9.313225746155e-08 1.938026175895e+00-1.769512891769e-07
    9.603700355411e-01 2.897812500000e+02-1.333163828768e-02-8.479996083018e-09
    2.785830326729e-10 1.000000000000e+00 2.041000000000e+03 0.000000000000e+00
    2.400000000000e+00 0.000000000000e+00-1.350417733192e-08 2.400000000000e+01
    4.608000000000e+05 4.000000000000e+00
29 19  2 22 10  0  0.0 2.648276276886e-04-8.753886504564e-12 0.000000000000e+00
    2.700000000000e+01 5.746875000000e+01 3.681581924093e-09 1.871316530702e+00
    3.021210432053e-06 7.163387490436e-04 1.316703855991e-05 5.153566667557e+03
    4.680000000000e+05 2.235174179077e-08-2.216722088058e+00 0.000000000000e+00
    9.853383693781e-01 1.372187500000e+02 1.448357484463e+00-7.675319707874e-09
    3.575148919303e-10 1.000000000000e+00 2.041000000000e+03 0.000000000000e+00
    2.400000000000e+00 0.000000000000e+00-1.024454832077e-08 2.700000000000e+01
    4.608000000000e+05 4.000000000000e+00
16 19  2 22 10  0  0.0-2.086395397782e-05-2.501110429876e-12 0.000000000000e+00
    1.020000000000e+02-6.918750000000e+01 4.007309777680e-09 1.914785826264e+00
   -3.578141331673e-06 1.062519033439e-02 8.985400199890e-06 5.153780389786e+03
    4.680000000000e+05-1.285225152969e-07 3.041473765979e+00-1.490116119385e-08
    9.844742397608e-01 2.230937500000e+02 5.433623931333e-01-7.935687696103e-09
   -5.818099490054e-10 1.000000000000e+00 2.041000000000e+03 0.000000000000e+00
    3.400000000000e+00 0.000000000000e+00-1.071020960808e-08 1.020000000000e+02
    4.608000000000e+05 4.000000000000e+00
13 19  2 22 10  0  0.0-7.409416139126e-05 1.250555214938e-12 0.000000000000e+00
    7.800000000000e+01 4.731250000000e+01 4.245533986389e-09-4.762326900317e-02
    2.549961209297e-06 3.715009661391e-03 1.246109604836e-05 5.153671827316e+03
    4.680000000000e+05-5.029141902924e-08 9.833078551762e-01 5.215406417847e-08
    9.680951602493e-01 1.412187500000e+02 1.363485247571e+00-7.951759794142e-09
    2.635824078367e-10 1.000000000000e+00 2.041000000000e+03 0.000000000000e+00
    2.400000000000e+00 0.000000000000e+00-1.117587089539e-08 7.800000000000e+01
    4.608000000000e+05 4.000000000000e+00
14 19  2 22 10  0  0.0-9.079882875085e-05 1.250555214938e-12 0.000000000000e+00
    1.040000000000e+02 2.556250000000e+01 4.354467095319e-09 8.090750653383e-01
    1.477077603340e-06 1.017109653912e-02 1.345388591290e-05 5.153684457779e+03
    4.680000000000e+05-1.266598701477e-07 9.395501789619e-01 4.097819328308e-08
    9.607002483358e-01 1.233437500000e+02-1.947939066795e+00-8.144624970607e-09
    1.567922453121e-10 1.000000000000e+00 2.041000000000e+03 0.000000000000e+00
    2.400000000000e+00 0.000000000000e+00-9.778887033463e-09 1.040000000000e+02
    4.608000000000e+05 4.000000000000e+00
30 19  2 22 10  0  0.0-5.692616105080e-05-6.480149750132e-12 0.000000000000e+00
    9.900000000000e+01 4.668750000000e+01 5.321293081787e-09-1.731564733159e+00
    2.317130565643e-06 3.668616642244e-03 3.959983587265e-06 5.153617681503e+03
    4.680000000000e+05-3.725290298462e-08 1.953946557443e+00-9.313225746155e-09
    9.412942903769e-01 2.933750000000e+02-3.021702925530e+00-8.627145069506e-09
    1.789360248322e-10 1.000000000000e+00 2.041000000000e+03 0.000000000000e+00
    3.400000000000e+00 0.000000000000e+00 3.725290298462e-09 9.900000000000e+01
    4.608000000000e+05 4.000000000000e+00
32 19  2 22 10  0  0.0-2.143951132894e-04 1.909938873723e-11 0.000000000000e+00
    1.030000000000e+02 1.259375000000e+01 4.350181202508e-09 1.786598135738e+00
    7.487833499908e-07 2.606089692563e-03 1.372769474983e-05 5.153769504547e+03
    4.680000000000e+05-5.401670932770e-08 8.537764100259e-01 4.470348358154e-08
    9.569801807858e-01 1.135312500000e+02-2.610061717216e+00-7.984261147953e-09
    1.492919328940e-10 1.000000000000e+00 2.041000000000e+03 0.000000000000e+00
    2.400000000000e+00 0.000000000000e+00 4.656612873077e-10 1.030000000000e+02
    4.608000000000e+05 4.000000000000e+00
17 19  2 22 10  0  0.0 1.345155760646e-05 5.684341886081e-12 0.000000000000e+00
    9.500000000000e+01 4.737500000000e+01 3.808015761999e-09 1.001698616745e+00
    2.466142177582e-06 1.296019682195e-02 1.191534101963e-05 5.153702867508e+03
    4.680000000000e+05-2.384185791016e-07-2.227715774058e+00-8.568167686462e-08
    9.839283313987e-01 1.619375000000e+02-1.720293743722e+00-7.911043812443e-09
    2.535819912792e-10 1.000000000000e+00 2.041000000000e+03 0.000000000000e+00
    3.400000000000e+00 0.000000000000e+00-1.117587089539e-08 9.500000000000e+01
    4.608000000000e+05 4.000000000000e+00
10 19  2 22 10  0  0.0 1.116865314543e-04-7.844391802792e-12 0.000000000000e+00
    8.400000000000e+01-9.890625000000e+01 4.722696719275e-09 3.113427706235e+00
   -5.125999450684e-06 4.343105247244e-03 7.877126336098e-06 5.153664798737e+03
    4.680000000000e+05 0.000000000000e+00-1.878938085199e-01-4.656612873077e-08
    9.628294466026e-01 2.305937500000e+02-2.744085077198e+00-8.216770832915e-09
   -4.700195782020e-10 1.000000000000e+00 2.041000000000e+03 0.000000000000e+00
    2.400000000000e+00 0.000000000000e+00 1.862645149231e-09 8.400000000000e+01
    4.608000000000e+05 4.000000000000e+00
12 19  2 22 10  0  0.0 2.658562734723e-04-3.183231456205e-12 0.000000000000e+00
    7.500000000000e+01-7.081250000000e+01 3.969451057855e-09-2.460429692807e+00
   -3.652647137642e-06 7.480402127840e-03 9.180977940559e-06 5.153694343567e+03
    4.680000000000e+05 8.195638656616e-08 3.022572440149e+00-7.450580596924e-09
    9.840948012357e-01 2.128750000000e+02 1.036012298025e+00-7.778538293057e-09
   -4.971635660009e-10 1.000000000000e+00 2.041000000000e+03 0.000000000000e+00
    2.400000000000e+00 0.000000000000e+00-1.257285475731e-08 7.500000000000e+01
    4.608000000000e+05 4.000000000000e+00
20 19  2 22 10  0  0.0 5.224542692304e-04 3.410605131648e-13 0.000000000000e+00
    8.800000000000e+01-9.790625000000e+01 5.593804432979e-09-1.434703331255e+00
   -5.047768354416e-06 4.392437636852e-03 6.422400474548e-06 5.153673080444e+03
    4.680000000000e+05-6.332993507385e-08-3.031452012030e-01-1.117587089539e-08
    9.303721176646e-01 2.416875000000e+02 2.284750777726e+00-8.800009412857e-09
   -4.132314984649e-10 1.000000000000e+00 2.041000000000e+03 0.000000000000e+00
    2.400000000000e+00 0.000000000000e+00-8.381903171539e-09 8.800000000000e+01
    4.608000000000e+05 4.000000000000e+00
 4 19  2 22 10  0  0.0 1.194314099848e-04 8.753886504564e-12 0.000000000000e+00
    8.700000000000e+01 2.959375000000e+01 4.303036381594e-09-1.979461713966e+00
    1.437962055206e-06 3.251056186855e-04 1.218169927597e-05 5.153582283020e+03
    4.680000000000e+05-5.587935447693e-09 8.920069944832e-01 1.117587089539e-08
    9.600365955491e-01 1.434375000000e+02-1.459415685150e+00-7.903543500025e-09
    1.710785546799e-10 1.000000000000e+00 2.041000000000e+03 0.000000000000e+00
    2.400000000000e+00 6.300000000000e+01-8.847564458847e-09 5.990000000000e+02
    4.608300000000e+05 4.000000000000e+00
13 19  2 22  9 59 44.0-7.409276440740e-05 1.364242052659e-12 0.000000000000e+00
    2.300000000000e+01 4.731250000000e+01 4.245533986389e-09-4.995665113504e-02
    2.549961209297e-06 3.715011524037e-03 1.246109604836e-05 5.153671825409e+03
    4.679840000000e+05-5.029141902924e-08 9.833080117085e-01 5.215406417847e-08
    9.680951485459e-01 1.412187500000e+02 1.363484859897e+00-7.952116951876e-09
    2.632252501025e-10 1.000000000000e+00 2.041000000000e+03 0.000000000000e+00
    2.400000000000e+00 0.000000000000e+00-1.117587089539e-08 2.300000000000e+01
    4.625100000000e+05 4.000000000000e+00
17 19  2 22  9 59 44.0 1.345248892903e-05 5.684341886081e-12 0.000000000000e+00
    1.000000000000e+00 4.737500000000e+01 3.808015761999e-09 9.993647474617e-01
    2.466142177582e-06 1.296019565780e-02 1.191534101963e-05 5.153702875137e+03
    4.679840000000e+05-2.384185791016e-07-2.227715649710e+00-8.568167686462e-08
    9.839283167695e-01 1.619375000000e+02-1.720293651559e+00-7.911043812443e-09
    2.535819912792e-10 1.000000000000e+00 2.041000000000e+03 0.000000000000e+00
    2.400000000000e+00 0.000000000000e+00-1.117587089539e-08 1.000000000000e+00
    4.633200000000e+05 4.000000000000e+00
16 19  2 22  9 59 44.0-2.086302265525e-05-2.501110429876e-12 0.000000000000e+00
    2.000000000000e+00-6.918750000000e+01 4.006952619946e-09 1.912452382690e+00
   -3.578141331673e-06 1.062518800609e-02 8.985400199890e-06 5.153780385971e+03
    4.679840000000e+05-1.285225152969e-07 3.041473875698e+00-1.490116119385e-08
    9.844742500012e-01 2.230937500000e+02 5.433622717111e-01-7.935687696103e-09
   -5.818099490054e-10 1.000000000000e+00 2.041000000000e+03 0.000000000000e+00
    2.400000000000e+00 0.000000000000e+00-1.071020960808e-08 2.000000000000e+00
    4.657800000000e+05 4.000000000000e+00
 5 19  2 22  9 59 44.0 1.123175024986e-06 1.136868377216e-13 0.000000000000e+00
    5.000000000000e+00-9.625000000000e+01 5.101998232991e-09 1.813453015083e+00
   -4.950910806656e-06 5.562932696193e-03 7.720664143562e-06 5.153632621765e+03
    4.679840000000e+05-2.030283212662e-07-2.101454142457e-01 5.774199962616e-08
    9.496525440860e-01 2.274687500000e+02 7.121812450018e-01-8.434994208509e-09
   -4.471614832135e-10 1.000000000000e+00 2.041000000000e+03 0.000000000000e+00
    2.400000000000e+00 0.000000000000e+00-1.117587089539e-08 5.000000000000e+00
    4.662000000000e+05 4.000000000000e+00
